{
  "type": "FeatureCollection",
  "name": "Seagrass Carbon Meadows",
  "category": "sensitive_habitat",
  "risk_multiplier": 1.8,
  "features": [
    {
      "type": "Feature",
      "properties": {
        "id": "SG_001",
        "name": "Palk Strait Inshore Seagrass Beds",
        "type": "Seagrass",
        "sensitivity": "MODERATE"
      },
      "geometry": {
        "type": "Polygon",
        "coordinates": [
          [
            [
              79.05,
              9.25
            ],
            [
              79.25,
              9.25
            ],
            [
              79.25,
              9.45
            ],
            [
              79.05,
              9.45
            ],
            [
              79.05,
              9.25
            ]
          ]
        ]
      }
    }
  ]
}